[{"OBJECT_NAME":"SL-8 R/B","OBJECT_ID":"1979-089B","EPOCH":"2026-03-08T11:55:44.050368","MEAN_MOTION":14.42350155,"ECCENTRICITY":0.00171653,"INCLINATION":74.0668,"RA_OF_ASC_NODE":93.2517,"ARG_OF_PERICENTER":266.0889,"MEAN_ANOMALY":93.8305,"EPHEMERIS_TYPE":0,"CLASSIFICATION_TYPE":"U","NORAD_CAT_ID":11574,"ELEMENT_SET_NO":999,"REV_AT_EPOCH":43593,"BSTAR":0.00013070417,"MEAN_MOTION_DOT":4.06e-6,"MEAN_MOTION_DDOT":0},{"OBJECT_NAME":"SL-14 R/B","OBJECT_ID":"1980-005B","EPOCH":"2026-03-08T22:08:06.463392","MEAN_MOTION":14.90929439,"ECCENTRICITY":0.00161248,"INCLINATION":82.5145,"RA_OF_ASC_NODE":307.9643,"ARG_OF_PERICENTER":160.6969,"MEAN_ANOMALY":199.4865,"EPHEMERIS_TYPE":0,"CLASSIFICATION_TYPE":"U","NORAD_CAT_ID":11672,"ELEMENT_SET_NO":999,"REV_AT_EPOCH":47637,"BSTAR":7.0873355e-5,"MEAN_MOTION_DOT":7.26e-6,"MEAN_MOTION_DDOT":0},{"OBJECT_NAME":"SL-8 R/B","OBJECT_ID":"1981-003B","EPOCH":"2026-03-08T16:13:43.777632","MEAN_MOTION":15.10931025,"ECCENTRICITY":0.02622843,"INCLINATION":82.9386,"RA_OF_ASC_NODE":290.9611,"ARG_OF_PERICENTER":182.1568,"MEAN_ANOMALY":177.8561,"EPHEMERIS_TYPE":0,"CLASSIFICATION_TYPE":"U","NORAD_CAT_ID":12139,"ELEMENT_SET_NO":999,"REV_AT_EPOCH":31452,"BSTAR":0.00068849646,"MEAN_MOTION_DOT":0.00026821,"MEAN_MOTION_DDOT":0},{"OBJECT_NAME":"SL-3 R/B","OBJECT_ID":"1981-046B","EPOCH":"2026-03-08T22:34:51.061728","MEAN_MOTION":15.4197561,"ECCENTRICITY":0.00196165,"INCLINATION":81.2297,"RA_OF_ASC_NODE":290.6435,"ARG_OF_PERICENTER":24.9322,"MEAN_ANOMALY":335.2863,"EPHEMERIS_TYPE":0,"CLASSIFICATION_TYPE":"U","NORAD_CAT_ID":12465,"ELEMENT_SET_NO":999,"REV_AT_EPOCH":43831,"BSTAR":0.00039243656,"MEAN_MOTION_DOT":0.00016871,"MEAN_MOTION_DDOT":0},{"OBJECT_NAME":"SL-3 R/B","OBJECT_ID":"1981-103B","EPOCH":"2026-03-08T22:00:52.726752","MEAN_MOTION":15.21366525,"ECCENTRICITY":0.00124968,"INCLINATION":81.1589,"RA_OF_ASC_NODE":214.338,"ARG_OF_PERICENTER":289.5932,"MEAN_ANOMALY":70.395,"EPHEMERIS_TYPE":0,"CLASSIFICATION_TYPE":"U","NORAD_CAT_ID":12904,"ELEMENT_SET_NO":999,"REV_AT_EPOCH":97311,"BSTAR":0.00031503305,"MEAN_MOTION_DOT":7.099e-5,"MEAN_MOTION_DDOT":0},{"OBJECT_NAME":"SL-3 R/B","OBJECT_ID":"1982-013B","EPOCH":"2026-03-08T22:12:57.951936","MEAN_MOTION":15.22010133,"ECCENTRICITY":0.00226253,"INCLINATION":81.1763,"RA_OF_ASC_NODE":161.6659,"ARG_OF_PERICENTER":179.9895,"MEAN_ANOMALY":180.1341,"EPHEMERIS_TYPE":0,"CLASSIFICATION_TYPE":"U","NORAD_CAT_ID":13068,"ELEMENT_SET_NO":999,"REV_AT_EPOCH":40423,"BSTAR":0.00029141283,"MEAN_MOTION_DOT":6.727e-5,"MEAN_MOTION_DDOT":0},{"OBJECT_NAME":"SL-3 R/B","OBJECT_ID":"1982-039B","EPOCH":"2026-03-08T22:16:13.441440","MEAN_MOTION":15.10076662,"ECCENTRICITY":0.00297217,"INCLINATION":81.1585,"RA_OF_ASC_NODE":216.8401,"ARG_OF_PERICENTER":326.9304,"MEAN_ANOMALY":33.0062,"EPHEMERIS_TYPE":0,"CLASSIFICATION_TYPE":"U","NORAD_CAT_ID":13154,"ELEMENT_SET_NO":999,"REV_AT_EPOCH":38152,"BSTAR":0.00023076523,"MEAN_MOTION_DOT":3.818e-5,"MEAN_MOTION_DDOT":0},{"OBJECT_NAME":"SL-3 R/B","OBJECT_ID":"1982-079B","EPOCH":"2026-03-08T22:40:50.572992","MEAN_MOTION":15.24788601,"ECCENTRICITY":0.00250359,"INCLINATION":81.1482,"RA_OF_ASC_NODE":193.9561,"ARG_OF_PERICENTER":167.3058,"MEAN_ANOMALY":192.8812,"EPHEMERIS_TYPE":0,"CLASSIFICATION_TYPE":"U","NORAD_CAT_ID":13403,"ELEMENT_SET_NO":999,"REV_AT_EPOCH":37758,"BSTAR":0.00037723939,"MEAN_MOTION_DOT":9.464e-5,"MEAN_MOTION_DDOT":0},{"OBJECT_NAME":"SL-14 R/B","OBJECT_ID":"1982-092B","EPOCH":"2026-03-08T17:05:02.594976","MEAN_MOTION":14.86665565,"ECCENTRICITY":0.001904,"INCLINATION":82.5697,"RA_OF_ASC_NODE":142.3141,"ARG_OF_PERICENTER":307.0586,"MEAN_ANOMALY":170.7103,"EPHEMERIS_TYPE":0,"CLASSIFICATION_TYPE":"U","NORAD_CAT_ID":13553,"ELEMENT_SET_NO":999,"REV_AT_EPOCH":32878,"BSTAR":7.0552744e-5,"MEAN_MOTION_DOT":6.53e-6,"MEAN_MOTION_DDOT":0},{"OBJECT_NAME":"SL-3 R/B","OBJECT_ID":"1983-010B","EPOCH":"2026-03-08T20:31:16.660416","MEAN_MOTION":15.46324226,"ECCENTRICITY":0.00180581,"INCLINATION":81.1062,"RA_OF_ASC_NODE":3.2706,"ARG_OF_PERICENTER":53.8739,"MEAN_ANOMALY":306.4173,"EPHEMERIS_TYPE":0,"CLASSIFICATION_TYPE":"U","NORAD_CAT_ID":13819,"ELEMENT_SET_NO":999,"REV_AT_EPOCH":35781,"BSTAR":0.00043441351,"MEAN_MOTION_DOT":0.00021617,"MEAN_MOTION_DDOT":0},{"OBJECT_NAME":"SL-3 R/B","OBJECT_ID":"1983-075B","EPOCH":"2026-03-08T23:19:07.526496","MEAN_MOTION":15.38399183,"ECCENTRICITY":0.00200511,"INCLINATION":97.6146,"RA_OF_ASC_NODE":72.5215,"ARG_OF_PERICENTER":228.6872,"MEAN_ANOMALY":131.2648,"EPHEMERIS_TYPE":0,"CLASSIFICATION_TYPE":"U","NORAD_CAT_ID":14208,"ELEMENT_SET_NO":999,"REV_AT_EPOCH":33004,"BSTAR":0.00039081951,"MEAN_MOTION_DOT":0.00014823,"MEAN_MOTION_DDOT":0},{"OBJECT_NAME":"COSMOS 1536","OBJECT_ID":"1984-013A","EPOCH":"2026-03-08T14:29:09.798432","MEAN_MOTION":15.23809497,"ECCENTRICITY":0.00125177,"INCLINATION":82.5426,"RA_OF_ASC_NODE":108.9299,"ARG_OF_PERICENTER":287.8222,"MEAN_ANOMALY":72.1649,"EPHEMERIS_TYPE":0,"CLASSIFICATION_TYPE":"U","NORAD_CAT_ID":14699,"ELEMENT_SET_NO":999,"REV_AT_EPOCH":27245,"BSTAR":0.00036988679,"MEAN_MOTION_DOT":8.958e-5,"MEAN_MOTION_DDOT":0},{"OBJECT_NAME":"SL-14 R/B","OBJECT_ID":"1984-027B","EPOCH":"2026-03-08T22:51:30.322656","MEAN_MOTION":14.85975677,"ECCENTRICITY":0.00173859,"INCLINATION":82.5386,"RA_OF_ASC_NODE":245.7043,"ARG_OF_PERICENTER":340.3846,"MEAN_ANOMALY":19.6699,"EPHEMERIS_TYPE":0,"CLASSIFICATION_TYPE":"U","NORAD_CAT_ID":14820,"ELEMENT_SET_NO":999,"REV_AT_EPOCH":24752,"BSTAR":7.3903716e-5,"MEAN_MOTION_DOT":6.71e-6,"MEAN_MOTION_DDOT":0},{"OBJECT_NAME":"SL-8 R/B","OBJECT_ID":"1985-006B","EPOCH":"2026-03-08T23:18:23.635296","MEAN_MOTION":14.37782139,"ECCENTRICITY":0.00184807,"INCLINATION":74.0433,"RA_OF_ASC_NODE":262.4709,"ARG_OF_PERICENTER":180.4339,"MEAN_ANOMALY":286.9157,"EPHEMERIS_TYPE":0,"CLASSIFICATION_TYPE":"U","NORAD_CAT_ID":15483,"ELEMENT_SET_NO":999,"REV_AT_EPOCH":15392,"BSTAR":0.00011842163,"MEAN_MOTION_DOT":3.31e-6,"MEAN_MOTION_DDOT":0},{"OBJECT_NAME":"SL-12 R/B(2)","OBJECT_ID":"1985-042D","EPOCH":"2026-03-08T19:14:01.897440","MEAN_MOTION":14.21982209,"ECCENTRICITY":0.00333062,"INCLINATION":71.1063,"RA_OF_ASC_NODE":89.6057,"ARG_OF_PERICENTER":129.6251,"MEAN_ANOMALY":42.6992,"EPHEMERIS_TYPE":0,"CLASSIFICATION_TYPE":"U","NORAD_CAT_ID":15772,"ELEMENT_SET_NO":999,"REV_AT_EPOCH":11426,"BSTAR":3.7790658e-5,"MEAN_MOTION_DOT":3.6e-7,"MEAN_MOTION_DDOT":0},{"OBJECT_NAME":"SL-14 R/B","OBJECT_ID":"1985-069B","EPOCH":"2026-03-08T22:29:54.964608","MEAN_MOTION":14.86432152,"ECCENTRICITY":0.00184017,"INCLINATION":82.5284,"RA_OF_ASC_NODE":25.6401,"ARG_OF_PERICENTER":190.21,"MEAN_ANOMALY":169.8746,"EPHEMERIS_TYPE":0,"CLASSIFICATION_TYPE":"U","NORAD_CAT_ID":15945,"ELEMENT_SET_NO":999,"REV_AT_EPOCH":17272,"BSTAR":8.0236201e-5,"MEAN_MOTION_DOT":7.35e-6,"MEAN_MOTION_DDOT":0},{"OBJECT_NAME":"SL-16 R/B","OBJECT_ID":"1985-097B","EPOCH":"2026-03-08T15:57:18.676800","MEAN_MOTION":14.16599115,"ECCENTRICITY":0.00099355,"INCLINATION":71.0031,"RA_OF_ASC_NODE":142.7122,"ARG_OF_PERICENTER":260.9745,"MEAN_ANOMALY":261.2623,"EPHEMERIS_TYPE":0,"CLASSIFICATION_TYPE":"U","NORAD_CAT_ID":16182,"ELEMENT_SET_NO":999,"REV_AT_EPOCH":8708,"BSTAR":-6.6859859e-5,"MEAN_MOTION_DOT":-1.81e-6,"MEAN_MOTION_DDOT":0}]
