SL-8 R/B                
1 11574U 79089B   26067.49703762  .00000406  00000+0  13070-3 0  9993
2 11574  74.0668  93.2517 0017165 266.0889  93.8305 14.42350155435939
SL-14 R/B               
1 11672U 80005B   26067.92229703  .00000726  00000+0  70873-4 0  9998
2 11672  82.5145 307.9643 0016124 160.6969 199.4865 14.90929439476376
SL-8 R/B                
1 12139U 81003B   26067.67620113  .00026821  00000+0  68850-3 0  9993
2 12139  82.9386 290.9611 0262284 182.1568 177.8561 15.10931025314524
SL-3 R/B                
1 12465U 81046B   26067.94086877  .00016871  00000+0  39244-3 0  9994
2 12465  81.2297 290.6435 0019616  24.9322 335.2863 15.41975610438311
SL-3 R/B                
1 12904U 81103B   26067.91727693  .00007099  00000+0  31503-3 0  9993
2 12904  81.1589 214.3380 0012496 289.5932  70.3950 15.21366525973112
SL-3 R/B                
1 13068U 82013B   26067.92567074  .00006727  00000+0  29141-3 0  9994
2 13068  81.1763 161.6659 0022625 179.9895 180.1341 15.22010133404234
SL-3 R/B                
1 13154U 82039B   26067.92793335  .00003818  00000+0  23077-3 0  9999
2 13154  81.1585 216.8401 0029721 326.9304  33.0062 15.10076662381521
SL-3 R/B                
1 13403U 82079B   26067.94502978  .00009464  00000+0  37724-3 0  9990
2 13403  81.1482 193.9561 0025035 167.3058 192.8812 15.24788601377589
SL-14 R/B               
1 13553U 82092B   26067.71183559  .00000653  00000+0  70553-4 0  9995
2 13553  82.5697 142.3141 0019040 307.0586 170.7103 14.86665565328784
SL-3 R/B                
1 13819U 83010B   26067.85505394  .00021617  00000+0  43441-3 0  9999
2 13819  81.1062   3.2706 0018058  53.8739 306.4173 15.46324226357810
SL-3 R/B                
1 14208U 83075B   26067.97161489  .00014823  00000+0  39082-3 0  9996
2 14208  97.6146  72.5215 0020051 228.6872 131.2648 15.38399183330040
COSMOS 1536             
1 14699U 84013A   26067.60358563  .00008958  00000+0  36989-3 0  9999
2 14699  82.5426 108.9299 0012517 287.8222  72.1649 15.23809497272450
SL-14 R/B               
1 14820U 84027B   26067.95243429  .00000671  00000+0  73904-4 0  9995
2 14820  82.5386 245.7043 0017385 340.3846  19.6699 14.85975677247525
SL-8 R/B                
1 15483U 85006B   26067.97110689  .00000331  00000+0  11842-3 0  9997
2 15483  74.0433 262.4709 0018480 180.4339 286.9157 14.37782139153926
SL-12 R/B(2)            
1 15772U 85042D   26067.80141085  .00000036  00000+0  37791-4 0  9998
2 15772  71.1063  89.6057 0033306 129.6251  42.6992 14.21982209114262
SL-14 R/B               
1 15945U 85069B   26067.93744172  .00000735  00000+0  80236-4 0  9997
2 15945  82.5284  25.6401 0018401 190.2100 169.8746 14.86432152172726
SL-16 R/B               
1 16182U 85097B   26067.66479950 -.00000181  00000+0 -66860-4 0  9995
2 16182  71.0031 142.7122 0009935 260.9745 261.2623 14.16599115 87087
